[{"OBJECT_NAME":"ISS (ZARYA)","OBJECT_ID":"1998-067A","EPOCH":"2026-04-05T13:16:46.804800","MEAN_MOTION":15.4878698,"ECCENTRICITY":0.00063514,"INCLINATION":51.6328,"RA_OF_ASC_NODE":299.5432,"ARG_OF_PERICENTER":274.8255,"MEAN_ANOMALY":85.2008,"EPHEMERIS_TYPE":0,"CLASSIFICATION_TYPE":"U","NORAD_CAT_ID":25544,"ELEMENT_SET_NO":999,"REV_AT_EPOCH":56049,"BSTAR":0.00016419769,"MEAN_MOTION_DOT":8.543e-5,"MEAN_MOTION_DDOT":0},{"OBJECT_NAME":"POISK","OBJECT_ID":"2009-060A","EPOCH":"2026-04-05T13:16:46.804800","MEAN_MOTION":15.4878698,"ECCENTRICITY":0.00063514,"INCLINATION":51.6328,"RA_OF_ASC_NODE":299.5432,"ARG_OF_PERICENTER":274.8255,"MEAN_ANOMALY":85.2008,"EPHEMERIS_TYPE":0,"CLASSIFICATION_TYPE":"U","NORAD_CAT_ID":36086,"ELEMENT_SET_NO":999,"REV_AT_EPOCH":56022,"BSTAR":0.00016419769,"MEAN_MOTION_DOT":8.543e-5,"MEAN_MOTION_DDOT":0},{"OBJECT_NAME":"CSS (TIANHE)","OBJECT_ID":"2021-035A","EPOCH":"2026-04-05T07:47:20.916960","MEAN_MOTION":15.6194274,"ECCENTRICITY":0.00035577,"INCLINATION":41.4682,"RA_OF_ASC_NODE":45.9319,"ARG_OF_PERICENTER":129.2727,"MEAN_ANOMALY":230.8429,"EPHEMERIS_TYPE":0,"CLASSIFICATION_TYPE":"U","NORAD_CAT_ID":48274,"ELEMENT_SET_NO":999,"REV_AT_EPOCH":28177,"BSTAR":0.00037223139,"MEAN_MOTION_DOT":0.00033173,"MEAN_MOTION_DDOT":0},{"OBJECT_NAME":"ISS (NAUKA)","OBJECT_ID":"2021-066A","EPOCH":"2026-04-05T13:16:46.804800","MEAN_MOTION":15.4878698,"ECCENTRICITY":0.00063514,"INCLINATION":51.6328,"RA_OF_ASC_NODE":299.5432,"ARG_OF_PERICENTER":274.8255,"MEAN_ANOMALY":85.2008,"EPHEMERIS_TYPE":0,"CLASSIFICATION_TYPE":"U","NORAD_CAT_ID":49044,"ELEMENT_SET_NO":999,"REV_AT_EPOCH":56026,"BSTAR":0.00016419769,"MEAN_MOTION_DOT":8.543e-5,"MEAN_MOTION_DDOT":0},{"OBJECT_NAME":"FREGAT DEB","OBJECT_ID":"2011-037PF","EPOCH":"2026-04-05T12:17:38.609088","MEAN_MOTION":12.40936816,"ECCENTRICITY":0.09550473,"INCLINATION":51.6426,"RA_OF_ASC_NODE":220.2066,"ARG_OF_PERICENTER":120.8974,"MEAN_ANOMALY":248.9327,"EPHEMERIS_TYPE":0,"CLASSIFICATION_TYPE":"U","NORAD_CAT_ID":49271,"ELEMENT_SET_NO":999,"REV_AT_EPOCH":21602,"BSTAR":0.012423119,"MEAN_MOTION_DOT":8.541e-5,"MEAN_MOTION_DDOT":0},{"OBJECT_NAME":"CSS (WENTIAN)","OBJECT_ID":"2022-085A","EPOCH":"2026-04-05T07:47:20.916960","MEAN_MOTION":15.6194274,"ECCENTRICITY":0.00035577,"INCLINATION":41.4682,"RA_OF_ASC_NODE":45.9319,"ARG_OF_PERICENTER":129.2727,"MEAN_ANOMALY":230.8429,"EPHEMERIS_TYPE":0,"CLASSIFICATION_TYPE":"U","NORAD_CAT_ID":53239,"ELEMENT_SET_NO":999,"REV_AT_EPOCH":28115,"BSTAR":0.00037223139,"MEAN_MOTION_DOT":0.00033173,"MEAN_MOTION_DDOT":0},{"OBJECT_NAME":"CSS (MENGTIAN)","OBJECT_ID":"2022-143A","EPOCH":"2026-04-05T07:47:20.916960","MEAN_MOTION":15.6194274,"ECCENTRICITY":0.00035577,"INCLINATION":41.4682,"RA_OF_ASC_NODE":45.9319,"ARG_OF_PERICENTER":129.2727,"MEAN_ANOMALY":230.8429,"EPHEMERIS_TYPE":0,"CLASSIFICATION_TYPE":"U","NORAD_CAT_ID":54216,"ELEMENT_SET_NO":999,"REV_AT_EPOCH":28115,"BSTAR":0.00037223139,"MEAN_MOTION_DOT":0.00033173,"MEAN_MOTION_DDOT":0},{"OBJECT_NAME":"TIANZHOU-9","OBJECT_ID":"2025-149A","EPOCH":"2026-04-05T07:47:20.916960","MEAN_MOTION":15.6194274,"ECCENTRICITY":0.00035577,"INCLINATION":41.4682,"RA_OF_ASC_NODE":45.9319,"ARG_OF_PERICENTER":129.2727,"MEAN_ANOMALY":230.8429,"EPHEMERIS_TYPE":0,"CLASSIFICATION_TYPE":"U","NORAD_CAT_ID":64786,"ELEMENT_SET_NO":999,"REV_AT_EPOCH":28115,"BSTAR":0.00037223139,"MEAN_MOTION_DOT":0.00033173,"MEAN_MOTION_DDOT":0},{"OBJECT_NAME":"PROGRESS-MS 32","OBJECT_ID":"2025-204A","EPOCH":"2026-04-05T13:16:46.804800","MEAN_MOTION":15.4878698,"ECCENTRICITY":0.00063514,"INCLINATION":51.6328,"RA_OF_ASC_NODE":299.5432,"ARG_OF_PERICENTER":274.8255,"MEAN_ANOMALY":85.2008,"EPHEMERIS_TYPE":0,"CLASSIFICATION_TYPE":"U","NORAD_CAT_ID":65586,"ELEMENT_SET_NO":999,"REV_AT_EPOCH":55450,"BSTAR":0.00016419769,"MEAN_MOTION_DOT":8.543e-5,"MEAN_MOTION_DDOT":0},{"OBJECT_NAME":"YOTSUBA-KULOVER","OBJECT_ID":"1998-067XN","EPOCH":"2026-04-05T12:12:01.808064","MEAN_MOTION":16.00238304,"ECCENTRICITY":0.00085494,"INCLINATION":51.6141,"RA_OF_ASC_NODE":276.5795,"ARG_OF_PERICENTER":274.6046,"MEAN_ANOMALY":85.3987,"EPHEMERIS_TYPE":0,"CLASSIFICATION_TYPE":"U","NORAD_CAT_ID":65941,"ELEMENT_SET_NO":999,"REV_AT_EPOCH":2776,"BSTAR":0.0012384207,"MEAN_MOTION_DOT":0.00659588,"MEAN_MOTION_DDOT":0.00020715368},{"OBJECT_NAME":"BOTAN","OBJECT_ID":"1998-067XQ","EPOCH":"2026-04-05T12:36:59.338656","MEAN_MOTION":15.98509385,"ECCENTRICITY":0.00083844,"INCLINATION":51.6175,"RA_OF_ASC_NODE":276.7252,"ARG_OF_PERICENTER":269.2072,"MEAN_ANOMALY":90.7976,"EPHEMERIS_TYPE":0,"CLASSIFICATION_TYPE":"U","NORAD_CAT_ID":65943,"ELEMENT_SET_NO":999,"REV_AT_EPOCH":2776,"BSTAR":0.0012617892,"MEAN_MOTION_DOT":0.00608963,"MEAN_MOTION_DDOT":0.00017218497},{"OBJECT_NAME":"HRC MONOBLOCK CAMERA","OBJECT_ID":"1998-067XR","EPOCH":"2026-04-05T13:00:59.986944","MEAN_MOTION":15.65305025,"ECCENTRICITY":0.00038419,"INCLINATION":51.6272,"RA_OF_ASC_NODE":289.7142,"ARG_OF_PERICENTER":228.9869,"MEAN_ANOMALY":131.0794,"EPHEMERIS_TYPE":0,"CLASSIFICATION_TYPE":"U","NORAD_CAT_ID":66052,"ELEMENT_SET_NO":999,"REV_AT_EPOCH":2659,"BSTAR":0.00064137601,"MEAN_MOTION_DOT":0.00065026,"MEAN_MOTION_DDOT":0},{"OBJECT_NAME":"HTV-X1","OBJECT_ID":"2025-241A","EPOCH":"2026-04-05T13:58:59.082528","MEAN_MOTION":15.32549807,"ECCENTRICITY":0.00073678,"INCLINATION":51.6364,"RA_OF_ASC_NODE":303.4264,"ARG_OF_PERICENTER":276.7302,"MEAN_ANOMALY":83.2841,"EPHEMERIS_TYPE":0,"CLASSIFICATION_TYPE":"U","NORAD_CAT_ID":66174,"ELEMENT_SET_NO":999,"REV_AT_EPOCH":2506,"BSTAR":0.00022482392,"MEAN_MOTION_DOT":6.811e-5,"MEAN_MOTION_DDOT":0},{"OBJECT_NAME":"SZ-21 MODULE","OBJECT_ID":"2025-246C","EPOCH":"2026-04-05T13:00:16.474176","MEAN_MOTION":15.70809155,"ECCENTRICITY":0.00035307,"INCLINATION":41.4755,"RA_OF_ASC_NODE":37.8006,"ARG_OF_PERICENTER":233.2393,"MEAN_ANOMALY":126.8126,"EPHEMERIS_TYPE":0,"CLASSIFICATION_TYPE":"U","NORAD_CAT_ID":66515,"ELEMENT_SET_NO":999,"REV_AT_EPOCH":2229,"BSTAR":0.00035049122,"MEAN_MOTION_DOT":0.0004484,"MEAN_MOTION_DDOT":0},{"OBJECT_NAME":"SHENZHOU-22","OBJECT_ID":"2025-272A","EPOCH":"2026-04-05T07:47:20.916960","MEAN_MOTION":15.6194274,"ECCENTRICITY":0.00035577,"INCLINATION":41.4682,"RA_OF_ASC_NODE":45.9319,"ARG_OF_PERICENTER":129.2727,"MEAN_ANOMALY":230.8429,"EPHEMERIS_TYPE":0,"CLASSIFICATION_TYPE":"U","NORAD_CAT_ID":66645,"ELEMENT_SET_NO":999,"REV_AT_EPOCH":28115,"BSTAR":0.00037223139,"MEAN_MOTION_DOT":0.00033173,"MEAN_MOTION_DDOT":0},{"OBJECT_NAME":"SOYUZ-MS 28","OBJECT_ID":"2025-275A","EPOCH":"2026-04-05T13:16:46.804800","MEAN_MOTION":15.4878698,"ECCENTRICITY":0.00063514,"INCLINATION":51.6328,"RA_OF_ASC_NODE":299.5432,"ARG_OF_PERICENTER":274.8255,"MEAN_ANOMALY":85.2008,"EPHEMERIS_TYPE":0,"CLASSIFICATION_TYPE":"U","NORAD_CAT_ID":66664,"ELEMENT_SET_NO":999,"REV_AT_EPOCH":56050,"BSTAR":0.00016419769,"MEAN_MOTION_DOT":8.543e-5,"MEAN_MOTION_DDOT":0}]
