ISS (ZARYA)             
1 25544U 98067A   26095.55331950  .00008543  00000+0  16420-3 0  9998
2 25544  51.6328 299.5432 0006351 274.8255  85.2008 15.48786980560492
POISK                   
1 36086U 09060A   26095.55331950  .00008543  00000+0  16420-3 0  9996
2 36086  51.6328 299.5432 0006351 274.8255  85.2008 15.48786980560226
CSS (TIANHE)            
1 48274U 21035A   26095.32454765  .00033173  00000+0  37223-3 0  9990
2 48274  41.4682  45.9319 0003557 129.2727 230.8429 15.61942740281775
ISS (NAUKA)             
1 49044U 21066A   26095.55331950  .00008543  00000+0  16420-3 0  9994
2 49044  51.6328 299.5432 0006351 274.8255  85.2008 15.48786980560268
FREGAT DEB              
1 49271U 11037PF  26095.51225242  .00008541  00000+0  12423-1 0  9990
2 49271  51.6426 220.2066 0955047 120.8974 248.9327 12.40936816216024
CSS (WENTIAN)           
1 53239U 22085A   26095.32454765  .00033173  00000+0  37223-3 0  9993
2 53239  41.4682  45.9319 0003557 129.2727 230.8429 15.61942740281154
CSS (MENGTIAN)          
1 54216U 22143A   26095.32454765  .00033173  00000+0  37223-3 0  9994
2 54216  41.4682  45.9319 0003557 129.2727 230.8429 15.61942740281150
TIANZHOU-9              
1 64786U 25149A   26095.32454765  .00033173  00000+0  37223-3 0  9996
2 64786  41.4682  45.9319 0003557 129.2727 230.8429 15.61942740281153
PROGRESS-MS 32          
1 65586U 25204A   26095.55331950  .00008543  00000+0  16420-3 0  9991
2 65586  51.6328 299.5432 0006351 274.8255  85.2008 15.48786980554507
YOTSUBA-KULOVER         
1 65941U 98067XN  26095.50835426  .00659588  20715-3  12384-2 0  9999
2 65941  51.6141 276.5795 0008549 274.6046  85.3987 16.00238304 27760
BOTAN                   
1 65943U 98067XQ  26095.52568679  .00608963  17218-3  12618-2 0  9991
2 65943  51.6175 276.7252 0008384 269.2072  90.7976 15.98509385 27769
HRC MONOBLOCK CAMERA    
1 66052U 98067XR  26095.54236096  .00065026  00000+0  64138-3 0  9999
2 66052  51.6272 289.7142 0003841 228.9869 131.0794 15.65305025 26596
HTV-X1                  
1 66174U 25241A   26095.58262827  .00006811  00000+0  22482-3 0  9996
2 66174  51.6364 303.4264 0007367 276.7302  83.2841 15.32549807 25066
SZ-21 MODULE            
1 66515U 25246C   26095.54185734  .00044840  00000+0  35049-3 0  9994
2 66515  41.4755  37.8006 0003530 233.2393 126.8126 15.70809155 22293
SHENZHOU-22             
1 66645U 25272A   26095.32454765  .00033173  00000+0  37223-3 0  9999
2 66645  41.4682  45.9319 0003557 129.2727 230.8429 15.61942740281159
SOYUZ-MS 28             
1 66664U 25275A   26095.55331950  .00008543  00000+0  16420-3 0  9997
2 66664  51.6328 299.5432 0006351 274.8255  85.2008 15.48786980560502
